IRIDIUM 63              
1 25286U 98021B   25356.51688387  .00000357  00000+0  11436-3 0  9992
2 25286  86.3979   3.1109 0002331  85.8974 274.2490 14.36743086450886
IRIDIUM 69              
1 25319U 98026A   25356.57395477  .00000361  00000+0  10578-3 0  9996
2 25319  86.3971  15.7803 0004477 107.5180 252.6509 14.41225178450197
IRIDIUM 71              
1 25320U 98026B   25356.49062526  .00000285  00000+0  81838-4 0  9998
2 25320  86.3971  10.4874 0002917 137.4263 222.7163 14.41323621450714
IRIDIUM 73              
1 25344U 98032C   25356.42695334  .00000619  00000+0  14831-3 0  9992
2 25344  86.4413 326.8714 0003006  85.7054 274.4495 14.52002228457877
IRIDIUM 82              
1 25467U 98051A   25356.54469156  .00046618  00000+0  84893-3 0  9997
2 25467  86.3598  16.1687 0057797 295.7989  63.7312 15.47408153452919
